GSAT-17                 
1 42815U 17040B   26158.80719788 -.00000243  00000+0  00000+0 0  9990
2 42815   0.1021  88.3898 0001602 214.7970 337.1202  1.00271571 32691
INTELSAT 35E (IS-35E)   
1 42818U 17041A   26158.69524117 -.00000223  00000+0  00000+0 0  9999
2 42818   0.0202  62.5317 0001842  13.9992  35.3772  1.00272821 32725
COSMOS 2520             
1 42907U 17046A   26158.49711875  .00000151  00000+0  00000+0 0  9999
2 42907   0.0450  86.1983 0001130  65.7096 327.9728  1.00272500 32309
TDRS 13                 
1 42915U 17047A   26158.84240337 -.00000086  00000+0  00000+0 0  9996
2 42915   3.4491   2.4856 0014618 105.0537  80.5289  1.00272140 32251
QZS-3 (MICHIBIKI-3)     
1 42917U 17048A   26158.79849956 -.00000333  00000+0  00000+0 0  9990
2 42917   0.0573 185.1420 0002730 260.7848 224.7616  1.00270116 32166
AMAZONAS 5              
1 42934U 17053A   26158.11960359 -.00000268  00000+0  00000+0 0  9999
2 42934   0.0346 317.7657 0002470  73.2126 206.6261  1.00269817 31941
ASIASAT 9               
1 42942U 17057A   26158.79754624 -.00000345  00000+0  00000+0 0  9998
2 42942   0.0063 350.2156 0002489  77.0121 238.1814  1.00270672 31764
INTELSAT 37E (IS-37E)   
1 42950U 17059A   26158.84110336  .00000000  00000+0  00000+0 0  9998
2 42950   0.0179 344.9665 0002418 116.1683  79.9053  1.00268311 31972
BSAT-4A                 
1 42951U 17059B   26158.79511955 -.00000335  00000+0  00000+0 0  9997
2 42951   0.0352   2.7050 0004330  66.0952 223.4540  1.00268742 31706
QZS-4 (MICHIBIKI-4)     
1 42965U 17062A   26158.37145416 -.00000311  00000+0  00000+0 0  9999
2 42965  40.1143 343.6087 0744946 271.5683 272.0991  1.00254196 31707
SES-11 (ECHOSTAR 105)   
1 42967U 17063A   26158.68130007 -.00000074  00000+0  00000+0 0  9992
2 42967   0.0151 340.6181 0002778 107.3164 308.4677  1.00271071 31622
KOREASAT 5A             
1 42984U 17067A   26158.79581288 -.00000343  00000+0  00000+0 0  9997
2 42984   0.0139 308.5570 0000642 130.1316 217.1599  1.00272169 31430
ALCOMSAT 1              
1 43039U 17078A   26158.76845041 -.00000171  00000+0  00000+0 0  9997
2 43039   0.0312  67.1501 0002431   6.1493  74.7130  1.00273110 31203
SBIRS GEO-3 (USA 282)   
1 43162U 18009A   26158.74179274  .00000142  00000+0  00000+0 0  9992
2 43162   2.1773  11.6279 0002161  61.7865 290.3804  1.00272302 30744
AL YAH 3                
1 43174U 18012A   26158.84067001 -.00000140  00000+0  00000+0 0  9993
2 43174   1.5268  83.2231 0004167 354.1480 101.4189  1.00271638 30752
SES-14                  
1 43175U 18012B   26158.76394373 -.00000264  00000+0  00000+0 0  9997
2 43175   0.0177  19.4167 0001150  57.6895  46.5832  1.00270836  6935
GOES 17                 
1 43226U 18022A   26158.61306500 -.00000168  00000+0  00000+0 0  9997
2 43226   0.9120  85.8794 0000672   8.1490 293.2029  1.00272144 30325
HISPASAT 30W-6          
1 43228U 18023A   26158.76741041 -.00000201  00000+0  00000+0 0  9997
2 43228   0.0436  39.1640 0006153  28.0645  75.2121  1.00270516 30314
SUPERBIRD-B3            
1 43271U 18033A   26158.73416604 -.00000077  00000+0  00000+0 0  9998
2 43271   0.0219 290.9128 0001332 165.7598 225.7728  1.00271053 29960
HYLAS 4                 
1 43272U 18033B   26158.76671706 -.00000219  00000+0  00000+0 0  9996
2 43272   0.0217  65.2841 0001187  12.7835  60.6584  1.00269650 29974
IRNSS-1I                
1 43286U 18035A   26157.98519318  .00000092  00000+0  00000+0 0  9994
2 43286  28.7305  74.3576 0016509 194.5221  36.1312  1.00270043 29977
USA 283                 
1 43339U 18036A   26158.44341078  .00000000  00000+0  00000+0 0  9991
2 43339   0.0123 333.7419 0000458 159.1187  56.7029  1.00268454 25195
COSMOS 2526             
1 43432U 18037A   26158.72740602 -.00000330  00000+0  00000+0 0  9990
2 43432   0.0266  74.0498 0000652 173.6830  38.3059  1.00272279 29868
APSTAR-6C               
1 43450U 18041A   26158.90123410 -.00000302  00000+0  00000+0 0  9996
2 43450   0.0273 326.1446 0001242  31.1428 357.4611  1.00273695 29713
BANGABANDHUSAT-1        
1 43463U 18044A   26158.79693955 -.00000347  00000+0  00000+0 0  9995
2 43463   0.0391  97.3528 0001981 350.3510 214.4960  1.00272465 29616
SES-12                  
1 43488U 18049A   26158.48030918 -.00000255  00000+0  00000+0 0  9995
2 43488   0.0284  47.0979 0000923 258.6442 218.0589  1.00271714 29326
FENGYUN 2H              
1 43491U 18050A   26158.86042049 -.00000116  00000+0  00000+0 0  9997
2 43491   3.0066  79.1814 0001516 126.0140  80.2682  1.00271440 29348
BEIDOU-2 IGSO-7         
1 43539U 18057A   26158.61729368  .00000020  00000+0  00000+0 0  9999
2 43539  55.1931 163.1411 0104815 237.9534 187.8297  1.00254517 29030
TELSTAR 19V             
1 43562U 18059A   26158.76091037 -.00000265  00000+0  00000+0 0  9990
2 43562   0.0256 186.3416 0002696 284.3322 356.4058  1.00269995 29059
TELKOM 4 (MERAH PUTIH)  
1 43587U 18064A   26158.79477288  .00000000  00000+0  00000+0 0  9998
2 43587   0.0162 327.5458 0001405 141.3580 181.4120  1.00268852 28788
TELSTAR 18V             
1 43611U 18069A   26158.34280918 -.00000279  00000+0  00000+0 0  9993
2 43611   0.0191 287.3508 0001999 140.4295  89.3964  1.00271186 28548
AZERSPACE 2 (IS-38)     
1 43632U 18074A   26158.78229284  .00000151  00000+0  00000+0 0  9997
2 43632   0.0193 317.7889 0001468 115.6613 149.4697  1.00271088 28353
