OBJECT_NAME,OBJECT_ID,EPOCH,MEAN_MOTION,ECCENTRICITY,INCLINATION,RA_OF_ASC_NODE,ARG_OF_PERICENTER,MEAN_ANOMALY,EPHEMERIS_TYPE,CLASSIFICATION_TYPE,NORAD_CAT_ID,ELEMENT_SET_NO,REV_AT_EPOCH,BSTAR,MEAN_MOTION_DOT,MEAN_MOTION_DDOT
GSAT-17,2017-040B,2026-06-07T19:22:21.896832,1.00271571,.0001602,0.1021,88.3898,214.7970,337.1202,0,U,42815,999,3269,0,-.243E-5,0
INTELSAT 35E (IS-35E),2017-041A,2026-06-07T16:41:08.837088,1.00272821,.0001842,0.0202,62.5317,13.9992,35.3772,0,U,42818,999,3272,0,-.223E-5,0
COSMOS 2520,2017-046A,2026-06-07T11:55:51.060000,1.00272500,.000113,0.0450,86.1983,65.7096,327.9728,0,U,42907,999,3230,0,.151E-5,0
TDRS 13,2017-047A,2026-06-07T20:13:03.651168,1.00272140,.0014618,3.4491,2.4856,105.0537,80.5289,0,U,42915,999,3225,0,-.86E-6,0
QZS-3 (MICHIBIKI-3),2017-048A,2026-06-07T19:09:50.361984,1.00270116,.000273,0.0573,185.1420,260.7848,224.7616,0,U,42917,999,3216,0,-.333E-5,0
AMAZONAS 5,2017-053A,2026-06-07T02:52:13.750176,1.00269817,.000247,0.0346,317.7657,73.2126,206.6261,0,U,42934,999,3194,0,-.268E-5,0
ASIASAT 9,2017-057A,2026-06-07T19:08:27.995136,1.00270672,.0002489,0.0063,350.2156,77.0121,238.1814,0,U,42942,999,3176,0,-.345E-5,0
INTELSAT 37E (IS-37E),2017-059A,2026-06-07T20:11:11.330304,1.00268311,.0002418,0.0179,344.9665,116.1683,79.9053,0,U,42950,999,3197,0,0,0
BSAT-4A,2017-059B,2026-06-07T19:04:58.329120,1.00268742,.000433,0.0352,2.7050,66.0952,223.4540,0,U,42951,999,3170,0,-.335E-5,0
QZS-4 (MICHIBIKI-4),2017-062A,2026-06-07T08:54:53.639424,1.00254196,.0744946,40.1143,343.6087,271.5683,272.0991,0,U,42965,999,3170,0,-.311E-5,0
SES-11 (ECHOSTAR 105),2017-063A,2026-06-07T16:21:04.326048,1.00271071,.0002778,0.0151,340.6181,107.3164,308.4677,0,U,42967,999,3162,0,-.74E-6,0
KOREASAT 5A,2017-067A,2026-06-07T19:05:58.232832,1.00272169,.0000642,0.0139,308.5570,130.1316,217.1599,0,U,42984,999,3143,0,-.343E-5,0
ALCOMSAT 1,2017-078A,2026-06-07T18:26:34.115424,1.00273110,.0002431,0.0312,67.1501,6.1493,74.7130,0,U,43039,999,3120,0,-.171E-5,0
SBIRS GEO-3 (USA 282),2018-009A,2026-06-07T17:48:10.892736,1.00272302,.0002161,2.1773,11.6279,61.7865,290.3804,0,U,43162,999,3074,0,.142E-5,0
AL YAH 3,2018-012A,2026-06-07T20:10:33.888864,1.00271638,.0004167,1.5268,83.2231,354.1480,101.4189,0,U,43174,999,3075,0,-.14E-5,0
SES-14,2018-012B,2026-06-07T18:20:04.738272,1.00270836,.000115,0.0177,19.4167,57.6895,46.5832,0,U,43175,999,693,0,-.264E-5,0
GOES 17,2018-022A,2026-06-07T14:42:48.816000,1.00272144,.0000672,0.9120,85.8794,8.1490,293.2029,0,U,43226,999,3032,0,-.168E-5,0
HISPASAT 30W-6,2018-023A,2026-06-07T18:25:04.259424,1.00270516,.0006153,0.0436,39.1640,28.0645,75.2121,0,U,43228,999,3031,0,-.201E-5,0
SUPERBIRD-B3,2018-033A,2026-06-07T17:37:11.945856,1.00271053,.0001332,0.0219,290.9128,165.7598,225.7728,0,U,43271,999,2996,0,-.77E-6,0
HYLAS 4,2018-033B,2026-06-07T18:24:04.353984,1.00269650,.0001187,0.0217,65.2841,12.7835,60.6584,0,U,43272,999,2997,0,-.219E-5,0
IRNSS-1I,2018-035A,2026-06-06T23:38:40.690752,1.00270043,.0016509,28.7305,74.3576,194.5221,36.1312,0,U,43286,999,2997,0,.92E-6,0
USA 283,2018-036A,2026-06-07T10:38:30.691392,1.00268454,.0000458,0.0123,333.7419,159.1187,56.7029,0,U,43339,999,2519,0,0,0
COSMOS 2526,2018-037A,2026-06-07T17:27:27.880128,1.00272279,.0000652,0.0266,74.0498,173.6830,38.3059,0,U,43432,999,2986,0,-.33E-5,0
APSTAR-6C,2018-041A,2026-06-07T21:37:46.626240,1.00273695,.0001242,0.0273,326.1446,31.1428,357.4611,0,U,43450,999,2971,0,-.302E-5,0
BANGABANDHUSAT-1,2018-044A,2026-06-07T19:07:35.577120,1.00272465,.0001981,0.0391,97.3528,350.3510,214.4960,0,U,43463,999,2961,0,-.347E-5,0
SES-12,2018-049A,2026-06-07T11:31:38.713152,1.00271714,.0000923,0.0284,47.0979,258.6442,218.0589,0,U,43488,999,2932,0,-.255E-5,0
FENGYUN 2H,2018-050A,2026-06-07T20:39:00.330336,1.00271440,.0001516,3.0066,79.1814,126.0140,80.2682,0,U,43491,999,2934,0,-.116E-5,0
BEIDOU-2 IGSO-7,2018-057A,2026-06-07T14:48:54.173952,1.00254517,.0104815,55.1931,163.1411,237.9534,187.8297,0,U,43539,999,2903,0,.2E-6,0
TELSTAR 19V,2018-059A,2026-06-07T18:15:42.655968,1.00269995,.0002696,0.0256,186.3416,284.3322,356.4058,0,U,43562,999,2905,0,-.265E-5,0
TELKOM 4 (MERAH PUTIH),2018-064A,2026-06-07T19:04:28.376832,1.00268852,.0001405,0.0162,327.5458,141.3580,181.4120,0,U,43587,999,2878,0,0,0
TELSTAR 18V,2018-069A,2026-06-07T08:13:38.713152,1.00271186,.0001999,0.0191,287.3508,140.4295,89.3964,0,U,43611,999,2854,0,-.279E-5,0
AZERSPACE 2 (IS-38),2018-074A,2026-06-07T18:46:30.101376,1.00271088,.0001468,0.0193,317.7889,115.6613,149.4697,0,U,43632,999,2835,0,.151E-5,0
